[{"OBJECT_NAME":"STARLINK-3899","OBJECT_ID":"2022-049G","EPOCH":"2026-03-09T08:41:45.053664","MEAN_MOTION":15.08834979,"ECCENTRICITY":0.00012723,"INCLINATION":53.2168,"RA_OF_ASC_NODE":70.5798,"ARG_OF_PERICENTER":85.0893,"MEAN_ANOMALY":275.0245,"EPHEMERIS_TYPE":0,"CLASSIFICATION_TYPE":"U","NORAD_CAT_ID":52457,"ELEMENT_SET_NO":999,"REV_AT_EPOCH":21206,"BSTAR":3.2694109e-5,"MEAN_MOTION_DOT":2.32e-6,"MEAN_MOTION_DDOT":0},{"OBJECT_NAME":"ELECTRON KICK STAGE R\/B","OBJECT_ID":"2023-035A","EPOCH":"2026-03-09T00:22:03.988416","MEAN_MOTION":15.09409521,"ECCENTRICITY":0.00017263,"INCLINATION":44.1756,"RA_OF_ASC_NODE":311.3301,"ARG_OF_PERICENTER":9.8979,"MEAN_ANOMALY":350.1918,"EPHEMERIS_TYPE":0,"CLASSIFICATION_TYPE":"U","NORAD_CAT_ID":55908,"ELEMENT_SET_NO":999,"REV_AT_EPOCH":16322,"BSTAR":0.00066616987,"MEAN_MOTION_DOT":0.00010608,"MEAN_MOTION_DDOT":0}]
